[{"OBJECT_NAME":"QIANFAN-94","OBJECT_ID":"2025-233D","EPOCH":"2026-03-09T21:26:02.178528","MEAN_MOTION":13.5099216,"ECCENTRICITY":0.00020968,"INCLINATION":88.9945,"RA_OF_ASC_NODE":53.1459,"ARG_OF_PERICENTER":87.2401,"MEAN_ANOMALY":272.8991,"EPHEMERIS_TYPE":0,"CLASSIFICATION_TYPE":"U","NORAD_CAT_ID":66036,"ELEMENT_SET_NO":999,"REV_AT_EPOCH":1982,"BSTAR":7.1348451e-5,"MEAN_MOTION_DOT":5.8e-7,"MEAN_MOTION_DDOT":0},{"OBJECT_NAME":"SL-16 DEB","OBJECT_ID":"1987-027E","EPOCH":"2026-03-09T13:19:00.303168","MEAN_MOTION":13.75786359,"ECCENTRICITY":0.0192707,"INCLINATION":70.996,"RA_OF_ASC_NODE":119.692,"ARG_OF_PERICENTER":50.6523,"MEAN_ANOMALY":311.1478,"EPHEMERIS_TYPE":0,"CLASSIFICATION_TYPE":"U","NORAD_CAT_ID":18527,"ELEMENT_SET_NO":999,"REV_AT_EPOCH":95549,"BSTAR":0.00016337,"MEAN_MOTION_DOT":1.39e-6,"MEAN_MOTION_DDOT":0}]
